[{"OBJECT_NAME":"BLOCK DM-SL R/B","OBJECT_ID":"2008-024B","EPOCH":"2026-03-05T12:16:30.753984","MEAN_MOTION":2.14621038,"ECCENTRICITY":0.6541174,"INCLINATION":1.2923,"RA_OF_ASC_NODE":12.8321,"ARG_OF_PERICENTER":93.3823,"MEAN_ANOMALY":338.2673,"EPHEMERIS_TYPE":0,"CLASSIFICATION_TYPE":"U","NORAD_CAT_ID":32952,"ELEMENT_SET_NO":999,"REV_AT_EPOCH":13943,"BSTAR":0,"MEAN_MOTION_DOT":-7.8e-7,"MEAN_MOTION_DDOT":0},{"OBJECT_NAME":"COSMOS 1124 DEB","OBJECT_ID":"1979-077H","EPOCH":"2026-03-05T07:10:24.426912","MEAN_MOTION":2.09818441,"ECCENTRICITY":0.6753804,"INCLINATION":65.3766,"RA_OF_ASC_NODE":189.8279,"ARG_OF_PERICENTER":331.6386,"MEAN_ANOMALY":4.0275,"EPHEMERIS_TYPE":0,"CLASSIFICATION_TYPE":"U","NORAD_CAT_ID":32982,"ELEMENT_SET_NO":999,"REV_AT_EPOCH":21873,"BSTAR":0,"MEAN_MOTION_DOT":-2.35e-6,"MEAN_MOTION_DDOT":0},{"OBJECT_NAME":"SATCOM 3 DEB","OBJECT_ID":"1979-101L","EPOCH":"2026-03-02T13:19:58.008864","MEAN_MOTION":1.80668193,"ECCENTRICITY":0.4771676,"INCLINATION":7.6898,"RA_OF_ASC_NODE":175.3333,"ARG_OF_PERICENTER":286.9583,"MEAN_ANOMALY":34.0395,"EPHEMERIS_TYPE":0,"CLASSIFICATION_TYPE":"U","NORAD_CAT_ID":32985,"ELEMENT_SET_NO":999,"REV_AT_EPOCH":11872,"BSTAR":0,"MEAN_MOTION_DOT":-5.3e-7,"MEAN_MOTION_DDOT":0},{"OBJECT_NAME":"SATCOM 3 DEB","OBJECT_ID":"1979-101N","EPOCH":"2026-03-04T14:48:06.789600","MEAN_MOTION":1.834653,"ECCENTRICITY":0.4929924,"INCLINATION":9.8065,"RA_OF_ASC_NODE":38.0609,"ARG_OF_PERICENTER":197.582,"MEAN_ANOMALY":282.3478,"EPHEMERIS_TYPE":0,"CLASSIFICATION_TYPE":"U","NORAD_CAT_ID":32987,"ELEMENT_SET_NO":999,"REV_AT_EPOCH":12097,"BSTAR":0,"MEAN_MOTION_DOT":-1.29e-6,"MEAN_MOTION_DDOT":0},{"OBJECT_NAME":"ZHONGXING-9","OBJECT_ID":"2008-028A","EPOCH":"2026-03-05T16:08:51.800928","MEAN_MOTION":1.00272237,"ECCENTRICITY":0.0008904,"INCLINATION":0.5043,"RA_OF_ASC_NODE":87.0338,"ARG_OF_PERICENTER":239.9516,"MEAN_ANOMALY":171.0129,"EPHEMERIS_TYPE":0,"CLASSIFICATION_TYPE":"U","NORAD_CAT_ID":33051,"ELEMENT_SET_NO":999,"REV_AT_EPOCH":6500,"BSTAR":0,"MEAN_MOTION_DOT":-2.56e-6,"MEAN_MOTION_DDOT":0},{"OBJECT_NAME":"SKYNET 5C","OBJECT_ID":"2008-030A","EPOCH":"2026-03-05T15:37:24.816288","MEAN_MOTION":1.00271244,"ECCENTRICITY":0.0005064,"INCLINATION":3.5241,"RA_OF_ASC_NODE":78.2758,"ARG_OF_PERICENTER":281.6789,"MEAN_ANOMALY":19.9519,"EPHEMERIS_TYPE":0,"CLASSIFICATION_TYPE":"U","NORAD_CAT_ID":33055,"ELEMENT_SET_NO":999,"REV_AT_EPOCH":6491,"BSTAR":0,"MEAN_MOTION_DOT":-1.46e-6,"MEAN_MOTION_DDOT":0},{"OBJECT_NAME":"TURKSAT 3A","OBJECT_ID":"2008-030B","EPOCH":"2026-03-05T15:54:30.677184","MEAN_MOTION":1.00275414,"ECCENTRICITY":0.0004703,"INCLINATION":0.0209,"RA_OF_ASC_NODE":91.5573,"ARG_OF_PERICENTER":279.9473,"MEAN_ANOMALY":72.5122,"EPHEMERIS_TYPE":0,"CLASSIFICATION_TYPE":"U","NORAD_CAT_ID":33056,"ELEMENT_SET_NO":999,"REV_AT_EPOCH":5131,"BSTAR":0,"MEAN_MOTION_DOT":1.39e-6,"MEAN_MOTION_DDOT":0},{"OBJECT_NAME":"SL-23 R/B","OBJECT_ID":"2008-022B","EPOCH":"2026-03-05T09:18:07.301664","MEAN_MOTION":0.95533473,"ECCENTRICITY":0.0544141,"INCLINATION":13.5286,"RA_OF_ASC_NODE":33.2327,"ARG_OF_PERICENTER":53.64,"MEAN_ANOMALY":312.8968,"EPHEMERIS_TYPE":0,"CLASSIFICATION_TYPE":"U","NORAD_CAT_ID":33059,"ELEMENT_SET_NO":999,"REV_AT_EPOCH":6198,"BSTAR":0,"MEAN_MOTION_DOT":-1.62e-6,"MEAN_MOTION_DDOT":0},{"OBJECT_NAME":"COSMOS 2440","OBJECT_ID":"2008-033A","EPOCH":"2026-03-05T10:57:14.181696","MEAN_MOTION":1.00277176,"ECCENTRICITY":0.0004895,"INCLINATION":10.3843,"RA_OF_ASC_NODE":41.9361,"ARG_OF_PERICENTER":222.6609,"MEAN_ANOMALY":142.6445,"EPHEMERIS_TYPE":0,"CLASSIFICATION_TYPE":"U","NORAD_CAT_ID":33108,"ELEMENT_SET_NO":999,"REV_AT_EPOCH":6475,"BSTAR":0,"MEAN_MOTION_DOT":-1.49e-6,"MEAN_MOTION_DDOT":0},{"OBJECT_NAME":"SL-12 R/B(2)","OBJECT_ID":"2008-033D","EPOCH":"2026-03-05T12:34:04.896192","MEAN_MOTION":1.00272864,"ECCENTRICITY":0.0031306,"INCLINATION":10.3647,"RA_OF_ASC_NODE":42.0704,"ARG_OF_PERICENTER":335.0974,"MEAN_ANOMALY":33.8331,"EPHEMERIS_TYPE":0,"CLASSIFICATION_TYPE":"U","NORAD_CAT_ID":33111,"ELEMENT_SET_NO":999,"REV_AT_EPOCH":6477,"BSTAR":0,"MEAN_MOTION_DOT":3.7e-7,"MEAN_MOTION_DDOT":0},{"OBJECT_NAME":"INTELSAT 25 (IS-25)","OBJECT_ID":"2008-034A","EPOCH":"2026-03-05T13:17:42.384192","MEAN_MOTION":1.00272573,"ECCENTRICITY":0.0003799,"INCLINATION":2.4404,"RA_OF_ASC_NODE":81.6047,"ARG_OF_PERICENTER":235.6948,"MEAN_ANOMALY":13.9151,"EPHEMERIS_TYPE":0,"CLASSIFICATION_TYPE":"U","NORAD_CAT_ID":33153,"ELEMENT_SET_NO":999,"REV_AT_EPOCH":6465,"BSTAR":0,"MEAN_MOTION_DOT":-2.3e-6,"MEAN_MOTION_DDOT":0},{"OBJECT_NAME":"ECHOSTAR 11","OBJECT_ID":"2008-035A","EPOCH":"2026-03-05T15:11:12.329376","MEAN_MOTION":1.00272427,"ECCENTRICITY":0.0002523,"INCLINATION":0.7371,"RA_OF_ASC_NODE":85.4765,"ARG_OF_PERICENTER":264.3076,"MEAN_ANOMALY":291.3726,"EPHEMERIS_TYPE":0,"CLASSIFICATION_TYPE":"U","NORAD_CAT_ID":33207,"ELEMENT_SET_NO":999,"REV_AT_EPOCH":5017,"BSTAR":0,"MEAN_MOTION_DOT":-6.3e-7,"MEAN_MOTION_DDOT":0},{"OBJECT_NAME":"BLOCK DM-SL R/B","OBJECT_ID":"2008-035B","EPOCH":"2026-03-05T15:47:46.322592","MEAN_MOTION":2.26262885,"ECCENTRICITY":0.7136606,"INCLINATION":0.6655,"RA_OF_ASC_NODE":320.0167,"ARG_OF_PERICENTER":311.4824,"MEAN_ANOMALY":60.2887,"EPHEMERIS_TYPE":0,"CLASSIFICATION_TYPE":"U","NORAD_CAT_ID":33208,"ELEMENT_SET_NO":999,"REV_AT_EPOCH":14580,"BSTAR":0.00020546,"MEAN_MOTION_DOT":-3.7e-7,"MEAN_MOTION_DDOT":0},{"OBJECT_NAME":"SUPERBIRD-C2","OBJECT_ID":"2008-038A","EPOCH":"2026-03-05T14:38:37.951872","MEAN_MOTION":1.00272883,"ECCENTRICITY":0.0001178,"INCLINATION":2.0939,"RA_OF_ASC_NODE":82.6007,"ARG_OF_PERICENTER":4.5692,"MEAN_ANOMALY":71.8452,"EPHEMERIS_TYPE":0,"CLASSIFICATION_TYPE":"U","NORAD_CAT_ID":33274,"ELEMENT_SET_NO":999,"REV_AT_EPOCH":10469,"BSTAR":0,"MEAN_MOTION_DOT":-3.13e-6,"MEAN_MOTION_DDOT":0},{"OBJECT_NAME":"INMARSAT 4-F3","OBJECT_ID":"2008-039A","EPOCH":"2026-03-05T11:49:09.202368","MEAN_MOTION":1.00272265,"ECCENTRICITY":0.0002738,"INCLINATION":4.2045,"RA_OF_ASC_NODE":31.1973,"ARG_OF_PERICENTER":320.4572,"MEAN_ANOMALY":250.8662,"EPHEMERIS_TYPE":0,"CLASSIFICATION_TYPE":"U","NORAD_CAT_ID":33278,"ELEMENT_SET_NO":999,"REV_AT_EPOCH":4550,"BSTAR":0,"MEAN_MOTION_DOT":-1.46e-6,"MEAN_MOTION_DDOT":0},{"OBJECT_NAME":"BREEZE-M R/B","OBJECT_ID":"2008-039C","EPOCH":"2026-03-05T04:32:20.153760","MEAN_MOTION":2.0142547,"ECCENTRICITY":0.5961776,"INCLINATION":23.0583,"RA_OF_ASC_NODE":20.9258,"ARG_OF_PERICENTER":324.3187,"MEAN_ANOMALY":7.5731,"EPHEMERIS_TYPE":0,"CLASSIFICATION_TYPE":"U","NORAD_CAT_ID":33280,"ELEMENT_SET_NO":999,"REV_AT_EPOCH":12903,"BSTAR":0,"MEAN_MOTION_DOT":1.69e-6,"MEAN_MOTION_DDOT":0},{"OBJECT_NAME":"NIMIQ 4","OBJECT_ID":"2008-044A","EPOCH":"2026-03-05T17:49:18.222528","MEAN_MOTION":1.00270956,"ECCENTRICITY":0.0002016,"INCLINATION":0.0197,"RA_OF_ASC_NODE":224.1795,"ARG_OF_PERICENTER":133.6419,"MEAN_ANOMALY":350.9571,"EPHEMERIS_TYPE":0,"CLASSIFICATION_TYPE":"U","NORAD_CAT_ID":33373,"ELEMENT_SET_NO":999,"REV_AT_EPOCH":6394,"BSTAR":0,"MEAN_MOTION_DOT":-2.27e-6,"MEAN_MOTION_DDOT":0},{"OBJECT_NAME":"BREEZE-M R/B","OBJECT_ID":"2008-044C","EPOCH":"2026-03-04T22:37:08.447232","MEAN_MOTION":2.03677342,"ECCENTRICITY":0.5984705,"INCLINATION":12.8688,"RA_OF_ASC_NODE":328.7531,"ARG_OF_PERICENTER":287.5999,"MEAN_ANOMALY":18.2252,"EPHEMERIS_TYPE":0,"CLASSIFICATION_TYPE":"U","NORAD_CAT_ID":33375,"ELEMENT_SET_NO":999,"REV_AT_EPOCH":12989,"BSTAR":0,"MEAN_MOTION_DOT":1.76e-6,"MEAN_MOTION_DDOT":0},{"OBJECT_NAME":"GALAXY 19 (G-19)","OBJECT_ID":"2008-045A","EPOCH":"2026-03-05T13:32:06.830016","MEAN_MOTION":1.00270628,"ECCENTRICITY":0.0002755,"INCLINATION":0.0463,"RA_OF_ASC_NODE":262.5202,"ARG_OF_PERICENTER":82.2984,"MEAN_ANOMALY":284.4951,"EPHEMERIS_TYPE":0,"CLASSIFICATION_TYPE":"U","NORAD_CAT_ID":33376,"ELEMENT_SET_NO":999,"REV_AT_EPOCH":6386,"BSTAR":0,"MEAN_MOTION_DOT":-1.46e-6,"MEAN_MOTION_DDOT":0},{"OBJECT_NAME":"VENESAT-1","OBJECT_ID":"2008-055A","EPOCH":"2026-03-05T08:45:17.950176","MEAN_MOTION":0.99274029,"ECCENTRICITY":0.006567,"INCLINATION":5.4927,"RA_OF_ASC_NODE":74.2598,"ARG_OF_PERICENTER":192.9493,"MEAN_ANOMALY":4.4133,"EPHEMERIS_TYPE":0,"CLASSIFICATION_TYPE":"U","NORAD_CAT_ID":33414,"ELEMENT_SET_NO":999,"REV_AT_EPOCH":6342,"BSTAR":0,"MEAN_MOTION_DOT":-2.49e-6,"MEAN_MOTION_DDOT":0},{"OBJECT_NAME":"ASTRA 1M","OBJECT_ID":"2008-057A","EPOCH":"2026-03-05T14:05:18.648096","MEAN_MOTION":1.00274593,"ECCENTRICITY":9.82e-5,"INCLINATION":0.0373,"RA_OF_ASC_NODE":62.2117,"ARG_OF_PERICENTER":11.9452,"MEAN_ANOMALY":319.6882,"EPHEMERIS_TYPE":0,"CLASSIFICATION_TYPE":"U","NORAD_CAT_ID":33436,"ELEMENT_SET_NO":999,"REV_AT_EPOCH":4469,"BSTAR":0,"MEAN_MOTION_DOT":1.13e-6,"MEAN_MOTION_DDOT":0},{"OBJECT_NAME":"BREEZE-M R/B","OBJECT_ID":"2008-057C","EPOCH":"2026-03-04T12:25:30.093888","MEAN_MOTION":2.0002976,"ECCENTRICITY":0.58325709,"INCLINATION":19.7117,"RA_OF_ASC_NODE":144.9908,"ARG_OF_PERICENTER":247.1145,"MEAN_ANOMALY":43.1226,"EPHEMERIS_TYPE":0,"CLASSIFICATION_TYPE":"U","NORAD_CAT_ID":33438,"ELEMENT_SET_NO":999,"REV_AT_EPOCH":12653,"BSTAR":0,"MEAN_MOTION_DOT":-2.1e-6,"MEAN_MOTION_DDOT":0},{"OBJECT_NAME":"FENGYUN 2D DEB","OBJECT_ID":"2006-053D","EPOCH":"2026-02-24T23:47:38.693184","MEAN_MOTION":1.00249682,"ECCENTRICITY":0.00379697,"INCLINATION":11.4621,"RA_OF_ASC_NODE":38.0946,"ARG_OF_PERICENTER":346.7068,"MEAN_ANOMALY":194.206,"EPHEMERIS_TYPE":0,"CLASSIFICATION_TYPE":"U","NORAD_CAT_ID":33458,"ELEMENT_SET_NO":999,"REV_AT_EPOCH":6425,"BSTAR":0,"MEAN_MOTION_DOT":-3.0e-7,"MEAN_MOTION_DDOT":0},{"OBJECT_NAME":"EUTELSAT HOTBIRD 13C","OBJECT_ID":"2008-065A","EPOCH":"2026-03-05T12:02:45.398112","MEAN_MOTION":1.00274207,"ECCENTRICITY":0.0003809,"INCLINATION":2.6839,"RA_OF_ASC_NODE":80.4357,"ARG_OF_PERICENTER":272.4413,"MEAN_ANOMALY":300.7304,"EPHEMERIS_TYPE":0,"CLASSIFICATION_TYPE":"U","NORAD_CAT_ID":33459,"ELEMENT_SET_NO":999,"REV_AT_EPOCH":4630,"BSTAR":0,"MEAN_MOTION_DOT":-2.89e-6,"MEAN_MOTION_DDOT":0}]
